YOTSUBA-KULOVER         
1 65941U 98067XN  26060.34973822  .00181603  00000+0  10771-2 0  9993
2 65941  51.6222 100.4331 0006111  19.8048 340.3188 15.76940611 22186
BOTAN                   
1 65942U 98067XP  26060.32892749  .01991374  37933-2  17297-2 0  9993
2 65942  51.6093  93.3995 0006842  39.1940 320.9569 16.13419316 22278
E-KAGAKU-1              
1 65943U 98067XQ  26060.47942405  .00173992  00000+0  10418-2 0  9992
2 65943  51.6239  99.8138 0006309  28.4787 331.6556 15.76747517 22202
HRC MONOBLOCK CAMERA    
1 66052U 98067XR  26060.82964012  .00054879  00000+0  63635-3 0  9993
2 66052  51.6275 105.1747 0003341  58.2632 301.8687 15.61244027 21164
HTV-X1                  
1 66174U 25241A   26060.83336605  .00009867  00000+0  19089-3 0  9995
2 66174  51.6319 111.1961 0008284 147.0223 213.1284 15.48387794554474
SZ-21 MODULE            
1 66515U 25246C   26060.60353166  .00039570  00000+0  35055-3 0  9990
2 66515  41.4736 253.1136 0001467 286.2005  73.8675 15.67828728 16807
SHENZHOU-22             
1 66645U 25272A   26060.90754303  .00017207  00000+0  20805-3 0  9994
2 66645  41.4652 255.4998 0006473 224.5901 135.4417 15.60283539267525
SOYUZ-MS 28             
1 66664U 25275A   26060.83336605  .00009867  00000+0  19089-3 0  9996
2 66664  51.6319 111.1961 0008284 147.0223 213.1284 15.48387794554524
DUPLEX                  
1 66906U 98067XS  26060.42911294  .00033610  00000+0  48582-3 0  9995
2 66906  51.6290 110.7512 0001960  85.3418 274.7797 15.55608097 13849
ISS OBJECT XT           
1 66907U 98067XT  26060.42410612  .00137518  00000+0  12738-2 0  9999
2 66907  51.6255 107.7079 0004391  30.0220 330.1027 15.66538666 13887
ISS OBJECT XU           
1 66908U 98067XU  26060.42283311  .00138414  00000+0  12779-2 0  9995
2 66908  51.6252 107.6969 0004523  32.6879 327.4396 15.66615726 13888
SILVERSAT               
1 66909U 98067XV  26060.37382286  .00169451  00000+0  14200-2 0  9997
2 66909  51.6257 107.3696 0005352  28.2570 331.8716 15.68880735 13889
